{
  "type": "FeatureCollection",
  "features": [
    {
      "type": "Feature",
      "properties": {
        "norad_id": 30342,
        "name": "FENGYUN 1C DEB",
        "group": "fengyun-1c-debris",
        "lat": -40.19113904449695,
        "lon": -17.62144128485578,
        "alt_km": 1010.3166552270905,
        "timestamp": "2025-12-17T07:00:47.179772+00:00",
        "meta_object_name": "FENGYUN 1C DEB",
        "meta_object_id": "1999-025ABD",
        "meta_epoch": "2025-12-16T10:58:03.963648",
        "meta_mean_motion": 13.80049473,
        "meta_eccentricity": 0.01683373,
        "meta_inclination": 100.1956,
        "meta_ra_of_asc_node": 170.2237,
        "meta_arg_of_pericenter": 113.1292,
        "meta_mean_anomaly": 278.5402,
        "meta_ephemeris_type": 0,
        "meta_classification_type": "U",
        "meta_norad_cat_id": 30342,
        "meta_element_set_no": 999,
        "meta_rev_at_epoch": 94940,
        "meta_bstar": 0.00061755159,
        "meta_mean_motion_dot": 6.64e-06,
        "meta_mean_motion_ddot": 0,
        "tle_line1": "1 30342U 99025ABD 25350.45699032  .00000664  00000+0  61755-3 0  9992",
        "tle_line2": "2 30342 100.1956 170.2237 0168337 113.1292 278.5402 13.80049473949408"
      },
      "geometry": {
        "type": "Point",
        "coordinates": [
          -17.62144128485578,
          -40.19113904449695
        ]
      }
    },
    {
      "type": "Feature",
      "properties": {
        "norad_id": 30344,
        "name": "FENGYUN 1C DEB",
        "group": "fengyun-1c-debris",
        "lat": 39.52229439676822,
        "lon": 66.21571748184422,
        "alt_km": 714.6227965546414,
        "timestamp": "2025-12-17T07:00:47.179783+00:00",
        "meta_object_name": "FENGYUN 1C DEB",
        "meta_object_id": "1999-025ABF",
        "meta_epoch": "2025-12-16T04:38:22.011648",
        "meta_mean_motion": 14.51822927,
        "meta_eccentricity": 0.00075056,
        "meta_inclination": 98.8206,
        "meta_ra_of_asc_node": 72.4226,
        "meta_arg_of_pericenter": 111.8449,
        "meta_mean_anomaly": 308.2224,
        "meta_ephemeris_type": 0,
        "meta_classification_type": "U",
        "meta_norad_cat_id": 30344,
        "meta_element_set_no": 999,
        "meta_rev_at_epoch": 98127,
        "meta_bstar": 0.0016680742,
        "meta_mean_motion_dot": 6.672e-05,
        "meta_mean_motion_ddot": 0,
        "tle_line1": "1 30344U 99025ABF 25350.19331032  .00006672  00000+0  16681-2 0  9990",
        "tle_line2": "2 30344  98.8206  72.4226 0007505 111.8449 308.2224 14.51822927981276"
      },
      "geometry": {
        "type": "Point",
        "coordinates": [
          66.21571748184422,
          39.52229439676822
        ]
      }
    },
    {
      "type": "Feature",
      "properties": {
        "norad_id": 30345,
        "name": "FENGYUN 1C DEB",
        "group": "fengyun-1c-debris",
        "lat": -75.95764563880711,
        "lon": 89.77161313439345,
        "alt_km": 752.3512460448874,
        "timestamp": "2025-12-17T07:00:47.179793+00:00",
        "meta_object_name": "FENGYUN 1C DEB",
        "meta_object_id": "1999-025ABG",
        "meta_epoch": "2025-12-16T03:03:49.399776",
        "meta_mean_motion": 14.4170665,
        "meta_eccentricity": 0.0017574,
        "meta_inclination": 98.9218,
        "meta_ra_of_asc_node": 49.6481,
        "meta_arg_of_pericenter": 232.6131,
        "meta_mean_anomaly": 127.3457,
        "meta_ephemeris_type": 0,
        "meta_classification_type": "U",
        "meta_norad_cat_id": 30345,
        "meta_element_set_no": 999,
        "meta_rev_at_epoch": 97822,
        "meta_bstar": 0.0014406685,
        "meta_mean_motion_dot": 4.661e-05,
        "meta_mean_motion_ddot": 0,
        "tle_line1": "1 30345U 99025ABG 25350.12765509  .00004661  00000+0  14407-2 0  9994",
        "tle_line2": "2 30345  98.9218  49.6481 0017574 232.6131 127.3457 14.41706650978229"
      },
      "geometry": {
        "type": "Point",
        "coordinates": [
          89.77161313439345,
          -75.95764563880711
        ]
      }
    },
    {
      "type": "Feature",
      "properties": {
        "norad_id": 30346,
        "name": "FENGYUN 1C DEB",
        "group": "fengyun-1c-debris",
        "lat": -44.59325401069354,
        "lon": -100.71413437085506,
        "alt_km": 817.5962295805894,
        "timestamp": "2025-12-17T07:00:47.179804+00:00",
        "meta_object_name": "FENGYUN 1C DEB",
        "meta_object_id": "1999-025ABH",
        "meta_epoch": "2025-12-16T20:30:17.477280",
        "meta_mean_motion": 14.33936689,
        "meta_eccentricity": 0.00551839,
        "meta_inclination": 98.8091,
        "meta_ra_of_asc_node": 87.6342,
        "meta_arg_of_pericenter": 11.597,
        "meta_mean_anomaly": 115.0078,
        "meta_ephemeris_type": 0,
        "meta_classification_type": "U",
        "meta_norad_cat_id": 30346,
        "meta_element_set_no": 999,
        "meta_rev_at_epoch": 97472,
        "meta_bstar": 0.0014441634,
        "meta_mean_motion_dot": 4.052e-05,
        "meta_mean_motion_ddot": 0,
        "tle_line1": "1 30346U 99025ABH 25350.85436895  .00004052  00000+0  14442-2 0  9991",
        "tle_line2": "2 30346  98.8091  87.6342 0055183  11.5970 115.0078 14.33936689974721"
      },
      "geometry": {
        "type": "Point",
        "coordinates": [
          -100.71413437085506,
          -44.59325401069354
        ]
      }
    },
    {
      "type": "Feature",
      "properties": {
        "norad_id": 30347,
        "name": "FENGYUN 1C DEB",
        "group": "fengyun-1c-debris",
        "lat": -57.69093659659324,
        "lon": -171.7874900890944,
        "alt_km": 904.8093575173089,
        "timestamp": "2025-12-17T07:00:47.179815+00:00",
        "meta_object_name": "FENGYUN 1C DEB",
        "meta_object_id": "1999-025ABJ",
        "meta_epoch": "2025-12-16T10:44:07.865664",
        "meta_mean_motion": 13.92770328,
        "meta_eccentricity": 0.01504375,
        "meta_inclination": 98.3766,
        "meta_ra_of_asc_node": 173.9745,
        "meta_arg_of_pericenter": 23.4516,
        "meta_mean_anomaly": 5.6699,
        "meta_ephemeris_type": 0,
        "meta_classification_type": "U",
        "meta_norad_cat_id": 30347,
        "meta_element_set_no": 999,
        "meta_rev_at_epoch": 96012,
        "meta_bstar": 0.0001963362,
        "meta_mean_motion_dot": 2.41e-06,
        "meta_mean_motion_ddot": 0,
        "tle_line1": "1 30347U 99025ABJ 25350.44731326  .00000241  00000+0  19634-3 0  9999",
        "tle_line2": "2 30347  98.3766 173.9745 0150437  23.4516   5.6699 13.92770328960120"
      },
      "geometry": {
        "type": "Point",
        "coordinates": [
          -171.7874900890944,
          -57.69093659659324
        ]
      }
    },
    {
      "type": "Feature",
      "properties": {
        "norad_id": 30348,
        "name": "FENGYUN 1C DEB",
        "group": "fengyun-1c-debris",
        "lat": 1.4863393116251833,
        "lon": -93.59905696928583,
        "alt_km": 789.5251513435651,
        "timestamp": "2025-12-17T07:00:47.179825+00:00",
        "meta_object_name": "FENGYUN 1C DEB",
        "meta_object_id": "1999-025ABK",
        "meta_epoch": "2025-12-16T19:03:21.390048",
        "meta_mean_motion": 14.35145483,
        "meta_eccentricity": 0.00171147,
        "meta_inclination": 98.8636,
        "meta_ra_of_asc_node": 85.6576,
        "meta_arg_of_pericenter": 3.2427,
        "meta_mean_anomaly": 122.5435,
        "meta_ephemeris_type": 0,
        "meta_classification_type": "U",
        "meta_norad_cat_id": 30348,
        "meta_element_set_no": 999,
        "meta_rev_at_epoch": 97592,
        "meta_bstar": 0.0014730891,
        "meta_mean_motion_dot": 4.17e-05,
        "meta_mean_motion_ddot": 0,
        "tle_line1": "1 30348U 99025ABK 25350.79399757  .00004170  00000+0  14731-2 0  9993",
        "tle_line2": "2 30348  98.8636  85.6576 0017114   3.2427 122.5435 14.35145483975921"
      },
      "geometry": {
        "type": "Point",
        "coordinates": [
          -93.59905696928583,
          1.4863393116251833
        ]
      }
    },
    {
      "type": "Feature",
      "properties": {
        "norad_id": 30349,
        "name": "FENGYUN 1C DEB",
        "group": "fengyun-1c-debris",
        "lat": 55.56224295954206,
        "lon": 146.26309711406893,
        "alt_km": 885.7762660284161,
        "timestamp": "2025-12-17T07:00:47.179835+00:00",
        "meta_object_name": "FENGYUN 1C DEB",
        "meta_object_id": "1999-025ABL",
        "meta_epoch": "2025-12-16T20:30:36.029952",
        "meta_mean_motion": 14.11138022,
        "meta_eccentricity": 0.00892324,
        "meta_inclination": 98.5839,
        "meta_ra_of_asc_node": 313.1191,
        "meta_arg_of_pericenter": 0.7359,
        "meta_mean_anomaly": 59.8787,
        "meta_ephemeris_type": 0,
        "meta_classification_type": "U",
        "meta_norad_cat_id": 30349,
        "meta_element_set_no": 999,
        "meta_rev_at_epoch": 96289,
        "meta_bstar": 0.0016869191,
        "meta_mean_motion_dot": 3.113e-05,
        "meta_mean_motion_ddot": 0,
        "tle_line1": "1 30349U 99025ABL 25350.85458368  .00003113  00000+0  16869-2 0  9995",
        "tle_line2": "2 30349  98.5839 313.1191 0089232   0.7359  59.8787 14.11138022962891"
      },
      "geometry": {
        "type": "Point",
        "coordinates": [
          146.26309711406893,
          55.56224295954206
        ]
      }
    }
  ]
}